STARLINK-37288          
1 68551U 26070K   26099.83335647 -.00901473  27543-3 -17121-2 0  9999
2 68551  53.1586 228.8129 0000795  51.6965 256.8772 16.00001535  2381
