{
  "norad_id": 68551,
  "name": "STARLINK-37288",
  "history": [
    {
      "epoch": "2026-04-09T20:00:01.999008Z",
      "apogee_km": 274.9433243071753,
      "perigee_km": 273.88556862718633,
      "latitude_deg": -38.949134696176266,
      "longitude_deg": 53.70265286720864,
      "height_km": 287.2590212655658,
      "semi_major_axis_km": 6652.5514464671805,
      "eccentricity": 7.95e-05,
      "inclination_deg": 53.1586,
      "raan_deg": 228.8129,
      "arg_perigee_deg": 51.6965,
      "mean_anomaly_deg": 256.8772,
      "mean_motion_rev_day": 16.00001535
    }
  ]
}